GOES 7                  
1 17561U 87022A   02081.35396472  .00000097  00000-0  10000-3 0  3904
2 17561   6.9768  57.3921 0009193 277.9291 162.8179  1.00241014 38406
